{
  "type": "FeatureCollection",
  "features": [
    {
      "type": "Feature",
      "properties": {
        "norad_id": 28054,
        "name": "DMSP 5D-3 F16 (USA 172)",
        "group": "weather",
        "lat": -5.532310378350233,
        "lon": 3.0274154875719064,
        "alt_km": 843.6414861653475,
        "timestamp": "2025-12-10T16:57:11.277257+00:00",
        "meta_object_name": "DMSP 5D-3 F16 (USA 172)",
        "meta_object_id": "2003-048A",
        "meta_epoch": "2025-12-10T12:36:01.505952",
        "meta_mean_motion": 14.14423074,
        "meta_eccentricity": 0.0006574,
        "meta_inclination": 99.0048,
        "meta_ra_of_asc_node": 1.9646,
        "meta_arg_of_pericenter": 327.814,
        "meta_mean_anomaly": 183.6939,
        "meta_ephemeris_type": 0,
        "meta_classification_type": "U",
        "meta_norad_cat_id": 28054,
        "meta_element_set_no": 999,
        "meta_rev_at_epoch": 14281,
        "meta_bstar": 0.00013786,
        "meta_mean_motion_dot": 2.18e-06,
        "meta_mean_motion_ddot": 0,
        "tle_line1": "1 28054U 03048A   25344.52501743  .00000218  00000+0  13786-3 0  9997",
        "tle_line2": "2 28054  99.0048   1.9646 0006574 327.8140 183.6939 14.14423074142819"
      },
      "geometry": {
        "type": "Point",
        "coordinates": [
          3.0274154875719064,
          -5.532310378350233
        ]
      }
    },
    {
      "type": "Feature",
      "properties": {
        "norad_id": 28912,
        "name": "METEOSAT-9 (MSG-2)",
        "group": "weather",
        "lat": -5.2759321535154315,
        "lon": 19.988528660651074,
        "alt_km": 35796.8065439355,
        "timestamp": "2025-12-10T16:57:11.277306+00:00",
        "meta_object_name": "METEOSAT-9 (MSG-2)",
        "meta_object_id": "2005-049B",
        "meta_epoch": "2025-12-09T20:38:15.300384",
        "meta_mean_motion": 1.00274858,
        "meta_eccentricity": 0.0003774,
        "meta_inclination": 8.9334,
        "meta_ra_of_asc_node": 56.0037,
        "meta_arg_of_pericenter": 190.0856,
        "meta_mean_anomaly": 187.9557,
        "meta_ephemeris_type": 0,
        "meta_classification_type": "U",
        "meta_norad_cat_id": 28912,
        "meta_element_set_no": 999,
        "meta_rev_at_epoch": 510,
        "meta_bstar": 0,
        "meta_mean_motion_dot": 1.24e-06,
        "meta_mean_motion_ddot": 0,
        "tle_line1": "1 28912U 05049B   25343.85989931  .00000124  00000+0  00000+0 0  9994",
        "tle_line2": "2 28912   8.9334  56.0037 0003774 190.0856 187.9557  1.00274858  5105"
      },
      "geometry": {
        "type": "Point",
        "coordinates": [
          19.988528660651074,
          -5.2759321535154315
        ]
      }
    },
    {
      "type": "Feature",
      "properties": {
        "norad_id": 29522,
        "name": "DMSP 5D-3 F17 (USA 191)",
        "group": "weather",
        "lat": -67.0232316004402,
        "lon": 11.40960494087484,
        "alt_km": 846.4503351889953,
        "timestamp": "2025-12-10T16:57:11.277324+00:00",
        "meta_object_name": "DMSP 5D-3 F17 (USA 191)",
        "meta_object_id": "2006-050A",
        "meta_epoch": "2025-12-10T12:11:08.687616",
        "meta_mean_motion": 14.14918041,
        "meta_eccentricity": 0.0009313,
        "meta_inclination": 98.7394,
        "meta_ra_of_asc_node": 349.9433,
        "meta_arg_of_pericenter": 231.836,
        "meta_mean_anomaly": 128.1975,
        "meta_ephemeris_type": 0,
        "meta_classification_type": "U",
        "meta_norad_cat_id": 29522,
        "meta_element_set_no": 999,
        "meta_rev_at_epoch": 98573,
        "meta_bstar": 0.00016566,
        "meta_mean_motion_dot": 2.77e-06,
        "meta_mean_motion_ddot": 0,
        "tle_line1": "1 29522U 06050A   25344.50773944  .00000277  00000+0  16566-3 0  9990",
        "tle_line2": "2 29522  98.7394 349.9433 0009313 231.8360 128.1975 14.14918041985734"
      },
      "geometry": {
        "type": "Point",
        "coordinates": [
          11.40960494087484,
          -67.0232316004402
        ]
      }
    },
    {
      "type": "Feature",
      "properties": {
        "norad_id": 32958,
        "name": "FENGYUN 3A",
        "group": "weather",
        "lat": -28.012644694766404,
        "lon": -71.06826429259121,
        "alt_km": 827.1825708680017,
        "timestamp": "2025-12-10T16:57:11.277337+00:00",
        "meta_object_name": "FENGYUN 3A",
        "meta_object_id": "2008-026A",
        "meta_epoch": "2025-12-10T10:19:10.536384",
        "meta_mean_motion": 14.19513394,
        "meta_eccentricity": 0.0007998,
        "meta_inclination": 98.6695,
        "meta_ra_of_asc_node": 284.0055,
        "meta_arg_of_pericenter": 317.7202,
        "meta_mean_anomaly": 42.3357,
        "meta_ephemeris_type": 0,
        "meta_classification_type": "U",
        "meta_norad_cat_id": 32958,
        "meta_element_set_no": 999,
        "meta_rev_at_epoch": 90862,
        "meta_bstar": 0.00011972,
        "meta_mean_motion_dot": 2.09e-06,
        "meta_mean_motion_ddot": 0,
        "tle_line1": "1 32958U 08026A   25344.42998306  .00000209  00000+0  11972-3 0  9995",
        "tle_line2": "2 32958  98.6695 284.0055 0007998 317.7202  42.3357 14.19513394908620"
      },
      "geometry": {
        "type": "Point",
        "coordinates": [
          -71.06826429259121,
          -28.012644694766404
        ]
      }
    },
    {
      "type": "Feature",
      "properties": {
        "norad_id": 35491,
        "name": "GOES 14",
        "group": "weather",
        "lat": 0.7468009495189806,
        "lon": -134.32429911378054,
        "alt_km": 35769.30539708528,
        "timestamp": "2025-12-10T16:57:11.277365+00:00",
        "meta_object_name": "GOES 14",
        "meta_object_id": "2009-033A",
        "meta_epoch": "2025-12-10T10:21:18.620928",
        "meta_mean_motion": 1.0027336,
        "meta_eccentricity": 0.0003975,
        "meta_inclination": 1.1938,
        "meta_ra_of_asc_node": 85.4365,
        "meta_arg_of_pericenter": 155.1385,
        "meta_mean_anomaly": 245.8661,
        "meta_ephemeris_type": 0,
        "meta_classification_type": "U",
        "meta_norad_cat_id": 35491,
        "meta_element_set_no": 999,
        "meta_rev_at_epoch": 470,
        "meta_bstar": 0,
        "meta_mean_motion_dot": -6.4e-07,
        "meta_mean_motion_ddot": 0,
        "tle_line1": "1 35491U 09033A   25344.43146552 -.00000064  00000+0  00000+0 0  9994",
        "tle_line2": "2 35491   1.1938  85.4365 0003975 155.1385 245.8661  1.00273360  4704"
      },
      "geometry": {
        "type": "Point",
        "coordinates": [
          -134.32429911378054,
          0.7468009495189806
        ]
      }
    },
    {
      "type": "Feature",
      "properties": {
        "norad_id": 35951,
        "name": "DMSP 5D-3 F18 (USA 210)",
        "group": "weather",
        "lat": 19.74545347669568,
        "lon": 144.3355231921464,
        "alt_km": 843.4071551099778,
        "timestamp": "2025-12-10T16:57:11.277380+00:00",
        "meta_object_name": "DMSP 5D-3 F18 (USA 210)",
        "meta_object_id": "2009-057A",
        "meta_epoch": "2025-12-10T11:06:32.537376",
        "meta_mean_motion": 14.14767139,
        "meta_eccentricity": 0.0012087,
        "meta_inclination": 98.8833,
        "meta_ra_of_asc_node": 320.8751,
        "meta_arg_of_pericenter": 68.7045,
        "meta_mean_anomaly": 291.5418,
        "meta_ephemeris_type": 0,
        "meta_classification_type": "U",
        "meta_norad_cat_id": 35951,
        "meta_element_set_no": 999,
        "meta_rev_at_epoch": 83290,
        "meta_bstar": 0.00024142,
        "meta_mean_motion_dot": 4.21e-06,
        "meta_mean_motion_ddot": 0,
        "tle_line1": "1 35951U 09057A   25344.46287659  .00000421  00000+0  24142-3 0  9991",
        "tle_line2": "2 35951  98.8833 320.8751 0012087  68.7045 291.5418 14.14767139832903"
      },
      "geometry": {
        "type": "Point",
        "coordinates": [
          144.3355231921464,
          19.74545347669568
        ]
      }
    },
    {
      "type": "Feature",
      "properties": {
        "norad_id": 36411,
        "name": "EWS-G2 (GOES 15)",
        "group": "weather",
        "lat": -0.6095838052326232,
        "lon": 35.44745842036515,
        "alt_km": 35804.71630411978,
        "timestamp": "2025-12-10T16:57:11.277396+00:00",
        "meta_object_name": "EWS-G2 (GOES 15)",
        "meta_object_id": "2010-008A",
        "meta_epoch": "2025-12-10T01:58:51.583008",
        "meta_mean_motion": 1.00269219,
        "meta_eccentricity": 0.00058926,
        "meta_inclination": 0.8075,
        "meta_ra_of_asc_node": 86.0538,
        "meta_arg_of_pericenter": 173.5819,
        "meta_mean_anomaly": 270.5727,
        "meta_ephemeris_type": 0,
        "meta_classification_type": "U",
        "meta_norad_cat_id": 36411,
        "meta_element_set_no": 999,
        "meta_rev_at_epoch": 5774,
        "meta_bstar": 0,
        "meta_mean_motion_dot": 4.1e-07,
        "meta_mean_motion_ddot": 0,
        "tle_line1": "1 36411U 10008A   25344.08254147  .00000041  00000+0  00000+0 0  9996",
        "tle_line2": "2 36411   0.8075  86.0538 0005892 173.5819 270.5727  1.00269219 57748"
      },
      "geometry": {
        "type": "Point",
        "coordinates": [
          35.44745842036515,
          -0.6095838052326232
        ]
      }
    }
  ]
}